$$SOE
2461302.500000000, A.D. 2026-Sep-19 00:00:00.0000, -4.474919702580533E+08, -2.171160900740578E+08, 8.343177073641014E+07,
2461309.500000000, A.D. 2026-Sep-26 00:00:00.0000, -4.441804909308229E+08, -2.251991906728844E+08, 8.413881970123686E+07,
2461316.500000000, A.D. 2026-Oct-03 00:00:00.0000, -4.407016276977466E+08, -2.331974285749973E+08, 8.481416057744332E+07,
2461323.500000000, A.D. 2026-Oct-10 00:00:00.0000, -4.370573755233645E+08, -2.411081543231655E+08, 8.545767045507032E+07,
2461330.500000000, A.D. 2026-Oct-17 00:00:00.0000, -4.332497379320061E+08, -2.489287528823281E+08, 8.606923216495778E+07,
2461337.500000000, A.D. 2026-Oct-24 00:00:00.0000, -4.292807271823772E+08, -2.566566422779998E+08, 8.664873410027251E+07,
2461344.500000000, A.D. 2026-Oct-31 00:00:00.0000, -4.251523644020467E+08, -2.642892724391678E+08, 8.719607002751407E+07,
2461351.500000000, A.D. 2026-Nov-07 00:00:00.0000, -4.208666793411060E+08, -2.718241241707615E+08, 8.771113886181031E+07,
2461358.500000000, A.D. 2026-Nov-14 00:00:00.0000, -4.164257095424759E+08, -2.792587073673738E+08, 8.819384446046948E+07,
2461365.500000000, A.D. 2026-Nov-21 00:00:00.0000, -4.118315007387531E+08, -2.865905577855039E+08, 8.864409565649611E+07,
2461372.500000000, A.D. 2026-Nov-28 00:00:00.0000, -4.070861094721678E+08, -2.938172353821992E+08, 8.906180637772769E+07,
2461379.500000000, A.D. 2026-Dec-05 00:00:00.0000, -4.021916043177729E+08, -3.009363248766220E+08, 8.944689546631762E+07,
2461386.500000000, A.D. 2026-Dec-12 00:00:00.0000, -3.971500655446777E+08, -3.079454354227911E+08, 8.979928643800697E+07,
2461393.500000000, A.D. 2026-Dec-19 00:00:00.0000, -3.919635851014148E+08, -3.148421993858079E+08, 9.011890735476291E+07,
2461400.500000000, A.D. 2026-Dec-26 00:00:00.0000, -3.866342670664489E+08, -3.216242710889627E+08, 9.040569075273532E+07,
2461407.500000000, A.D. 2027-Jan-02 00:00:00.0000, -3.811642282873144E+08, -3.282893257227445E+08, 9.065957358459450E+07,
2461414.500000000, A.D. 2027-Jan-09 00:00:00.0000, -3.755555990916920E+08, -3.348350583959366E+08, 9.088049716729820E+07,
2461421.500000000, A.D. 2027-Jan-16 00:00:00.0000, -3.698105240360730E+08, -3.412591833202243E+08, 9.106840713292563E+07,
2461428.500000000, A.D. 2027-Jan-23 00:00:00.0000, -3.639311626474223E+08, -3.475594331680682E+08, 9.122325337522715E+07,
2461435.500000000, A.D. 2027-Jan-30 00:00:00.0000, -3.579196899717748E+08, -3.537335586516876E+08, 9.134498997081086E+07,
2461442.500000000, A.D. 2027-Feb-06 00:00:00.0000, -3.517782965068510E+08, -3.597793279830194E+08, 9.143357506377897E+07,
2461449.500000000, A.D. 2027-Feb-13 00:00:00.0000, -3.455091879806250E+08, -3.656945249944218E+08, 9.148897085552052E+07,
2461456.500000000, A.D. 2027-Feb-20 00:00:00.0000, -3.391145873405596E+08, -3.714769467102749E+08, 9.151114385134317E+07,
2461463.500000000, A.D. 2027-Feb-27 00:00:00.0000, -3.325967375579535E+08, -3.771244035829108E+08, 9.150006497278886E+07,
2461470.500000000, A.D. 2027-Mar-06 00:00:00.0000, -3.259579022297587E+08, -3.826347204705265E+08, 9.145570941567262E+07,
2461477.500000000, A.D. 2027-Mar-13 00:00:00.0000, -3.192003655780739E+08, -3.880057363076179E+08, 9.137805656780313E+07,
2461484.500000000, A.D. 2027-Mar-20 00:00:00.0000, -3.123264329762605E+08, -3.932353033029734E+08, 9.126709002147891E+07,
2461491.500000000, A.D. 2027-Mar-27 00:00:00.0000, -3.053384317995761E+08, -3.983212862153640E+08, 9.112279761737293E+07,
2461498.500000000, A.D. 2027-Apr-03 00:00:00.0000, -2.982387123981031E+08, -4.032615617562798E+08, 9.094517149761263E+07,
2461505.500000000, A.D. 2027-Apr-10 00:00:00.0000, -2.910296491320044E+08, -4.080540180980772E+08, 9.073420816480123E+07,
2461512.500000000, A.D. 2027-Apr-17 00:00:00.0000, -2.837136414484274E+08, -4.126965545027904E+08, 9.048990854421744E+07,
2461519.500000000, A.D. 2027-Apr-24 00:00:00.0000, -2.762931149220113E+08, -4.171870811343286E+08, 9.021227803713024E+07,
2461526.500000000, A.D. 2027-May-01 00:00:00.0000, -2.687705219602470E+08, -4.215235190266933E+08, 8.990132654017906E+07,
2461533.500000000, A.D. 2027-May-08 00:00:00.0000, -2.611483418669899E+08, -4.257037994602060E+08, 8.955706846386477E+07,
2461540.500000000, A.D. 2027-May-15 00:00:00.0000, -2.534290817613696E+08, -4.297258617925164E+08, 8.917952296528706E+07,
2461547.500000000, A.D. 2027-May-22 00:00:00.0000, -2.456152799157961E+08, -4.335876523364511E+08, 8.876871432659177E+07,
2461554.500000000, A.D. 2027-May-29 00:00:00.0000, -2.377095081571944E+08, -4.372871257546284E+08, 8.832467205151723E+07,
2461561.500000000, A.D. 2027-Jun-05 00:00:00.0000, -2.297143724474176E+08, -4.408222458411601E+08, 8.784743085534927E+07,
2461568.500000000, A.D. 2027-Jun-12 00:00:00.0000, -2.216325136511321E+08, -4.441909852602078E+08, 8.733703076816118E+07,
2461575.500000000, A.D. 2027-Jun-19 00:00:00.0000, -2.134666088226729E+08, -4.473913251779181E+08, 8.679351730568929E+07,
2461582.500000000, A.D. 2027-Jun-26 00:00:00.0000, -2.052193727328312E+08, -4.504212550509726E+08, 8.621694166133381E+07,
2461589.500000000, A.D. 2027-Jul-03 00:00:00.0000, -1.968935595039336E+08, -4.532787725659222E+08, 8.560736090848091E+07,
2461596.500000000, A.D. 2027-Jul-10 00:00:00.0000, -1.884919643171563E+08, -4.559618837234790E+08, 8.496483821129997E+07,
2461603.500000000, A.D. 2027-Jul-17 00:00:00.0000, -1.800174251568190E+08, -4.584686031096784E+08, 8.428944303843600E+07,
2461610.500000000, A.D. 2027-Jul-24 00:00:00.0000, -1.714728244364510E+08, -4.607969544197206E+08, 8.358125136101426E+07,
2461617.500000000, A.D. 2027-Jul-31 00:00:00.0000, -1.628610900963560E+08, -4.629449710019425E+08, 8.284034581728362E+07,
2461624.500000000, A.D. 2027-Aug-07 00:00:00.0000, -1.541851963744432E+08, -4.649106952730772E+08, 8.206681595710671E+07,
2461631.500000000, A.D. 2027-Aug-14 00:00:00.0000, -1.454481665520599E+08, -4.666921772607394E+08, 8.126075875706692E+07,
2461638.500000000, A.D. 2027-Aug-21 00:00:00.0000, -1.366530770566054E+08, -4.682874756404498E+08, 8.042227907487701E+07,
2461645.500000000, A.D. 2027-Aug-28 00:00:00.0000, -1.278030594900501E+08, -4.696946600685499E+08, 7.955148982739991E+07,
2461652.500000000, A.D. 2027-Sep-04 00:00:00.0000, -1.189013017652882E+08, -4.709118123135645E+08, 7.864851220587748E+07,
2461659.500000000, A.D. 2027-Sep-11 00:00:00.0000, -1.099510497463232E+08, -4.719370268517643E+08, 7.771347600284064E+07,
2461666.500000000, A.D. 2027-Sep-18 00:00:00.0000, -1.009556092594674E+08, -4.727684115814821E+08, 7.674651998574281E+07,
2461673.500000000, A.D. 2027-Sep-25 00:00:00.0000, -9.191834824674353E+07, -4.734040887384056E+08, 7.574779229033366E+07,
2461680.500000000, A.D. 2027-Oct-02 00:00:00.0000, -8.284269898619603E+07, -4.738421959893398E+08, 7.471745082955824E+07,
2461687.500000000, A.D. 2027-Oct-09 00:00:00.0000, -7.373216035631762E+07, -4.740808877146457E+08, 7.365566371615136E+07,
2461694.500000000, A.D. 2027-Oct-16 00:00:00.0000, -6.459030008129507E+07, -4.741183365403971E+08, 7.256260968942106E+07,
2461701.500000000, A.D. 2027-Oct-23 00:00:00.0000, -5.542075669726775E+07, -4.739527351320837E+08, 7.143847852268302E+07,
2461708.500000000, A.D. 2027-Oct-30 00:00:00.0000, -4.622724086480579E+07, -4.735822976453161E+08, 7.028347142743169E+07,
2461715.500000000, A.D. 2027-Nov-06 00:00:00.0000, -3.701353719028993E+07, -4.730052597106439E+08, 6.909780165342964E+07,
2461722.500000000, A.D. 2027-Nov-13 00:00:00.0000, -2.778350853942805E+07, -4.722198790338036E+08, 6.788169529716627E+07,
2461729.500000000, A.D. 2027-Nov-20 00:00:00.0000, -1.854109993729516E+07, -4.712244388041836E+08, 6.663539187429591E+07,
2461736.500000000, A.D. 2027-Nov-27 00:00:00.0000, -9.290340433583461E+06, -4.700172509568658E+08, 6.535914475122240E+07,
2461743.500000000, A.D. 2027-Dec-04 00:00:00.0000, -3.534495378839750E+04, -4.685966583852300E+08, 6.405322169773325E+07,
2461750.500000000, A.D. 2027-Dec-11 00:00:00.0000, 9.219683315549551E+06, -4.669610370787802E+08, 6.271790553389664E+07,
2461757.500000000, A.D. 2027-Dec-18 00:00:00.0000, 1.847045028520624E+07, -4.651087985355818E+08, 6.135349481952602E+07,
2461764.500000000, A.D. 2027-Dec-25 00:00:00.0000, 2.771256822064791E+07, -4.630383924614147E+08, 5.996030457303479E+07,
2461771.500000000, A.D. 2028-Jan-01 00:00:00.0000, 3.694155294443774E+07, -4.607483097510334E+08, 5.853866701781957E+07,
$$EOE